[{"OBJECT_NAME":"ION SCV-017","OBJECT_ID":"2025-052W","EPOCH":"2026-03-09T17:11:44.577024","MEAN_MOTION":15.26881798,"ECCENTRICITY":0.0023746,"INCLINATION":97.4016,"RA_OF_ASC_NODE":324.7516,"ARG_OF_PERICENTER":44.9875,"MEAN_ANOMALY":315.3282,"EPHEMERIS_TYPE":0,"CLASSIFICATION_TYPE":"U","NORAD_CAT_ID":63230,"ELEMENT_SET_NO":999,"REV_AT_EPOCH":5485,"BSTAR":0.00024539061,"MEAN_MOTION_DOT":6.457e-5,"MEAN_MOTION_DDOT":0},{"OBJECT_NAME":"STARLINK-35111","OBJECT_ID":"2025-195F","EPOCH":"2026-03-09T22:12:57.193344","MEAN_MOTION":15.30223245,"ECCENTRICITY":7.331e-5,"INCLINATION":53.1584,"RA_OF_ASC_NODE":256.8121,"ARG_OF_PERICENTER":85.083,"MEAN_ANOMALY":275.0254,"EPHEMERIS_TYPE":0,"CLASSIFICATION_TYPE":"U","NORAD_CAT_ID":65463,"ELEMENT_SET_NO":999,"REV_AT_EPOCH":3003,"BSTAR":0.0009742998,"MEAN_MOTION_DOT":0.00028629,"MEAN_MOTION_DDOT":0}]
